record_id,Mw,Rrup,Vs30,PGAr,period,log10_y_rock,y_rock_g
eq001,6.5,10.0,760.0,0.1,0.2,-0.18963038406895188,0.646203961254222
eq002,7.0,30.0,400.0,0.08,0.2,-0.42352099482350997,0.37711951372055125
eq003,5.8,70.0,300.0,0.05,0.2,-1.4205633050961288,0.037969658832339284
