record_id,Mw,Rrup,Vs30,PGAr,period,log10_y_rock,y_rock_g,site_term_ln,site_factor,log10_y_site,y_site_g
eq001,6.5,10.0,760.0,0.1,0.2,-0.18963038406895188,0.646203961254222,0.0,1.0,-0.18963038406895188,0.646203961254222
eq001,6.5,10.0,760.0,0.1,1.0,-0.9205883097572375,0.12006369098049478,0.0,1.0,-0.9205883097572375,0.12006369098049478
eq002,7.0,30.0,400.0,0.08,0.2,-0.42352099482350997,0.37711951372055125,0.340388450738632,1.4054934495056781,-0.27569216896412524,0.5300390062150014
eq002,7.0,30.0,400.0,0.08,1.0,-1.055762802558849,0.08795027413081022,0.6319421619291937,1.8812607465098043,-0.781313808750989,0.16545739836706996
eq003,5.8,70.0,300.0,0.05,0.2,-1.4205633050961288,0.037969658832339284,0.5032013830340354,1.6540079167783608,-1.2020257211583627,0.06280211630606258
eq003,5.8,70.0,300.0,0.05,1.0,-2.0452555119742057,0.009010408649943787,0.9066932494482117,2.47612106605335,-1.6514836369599188,0.022310862671875136
